[Satellite]
VERSION=1.1
NAME=ONEWEB-0536
NICKNAME=ONEWEB-0536
TLE1=1 54148U 22138AM  22321.58334491  .00066441  00000+0  65760-2 0  9991
TLE2=2 54148  87.1825 208.3612 0009683 192.4149 174.6371 14.91507453  1305
STATUS=0
